ORBCOMM FM24 [-]        
1 25478U 98053D   24063.07000214  .00001378  00000+0  52512-3 0  9996
2 25478  45.0105 337.9240 0002104   4.4680 355.6186 14.35320308329692
ORBCOMM FM25 [-]        
1 25479U 98053E   24063.45304663  .00001532  00000+0  57855-3 0  9991
2 25479  45.0096 334.3559 0004224  35.6576 324.4553 14.35306109330047
ORBCOMM FM26 [-]        
1 25480U 98053F   24063.43436905  .00001296  00000+0  50196-3 0  9994
2 25480  45.0088 328.2884 0005967  61.8082 298.3367 14.34795748329984
ORBCOMM FM27 [+]        
1 25481U 98053G   24063.44024452  .00001502  00000+0  56841-3 0  9999
2 25481  45.0077 334.6802 0000838 331.6338  28.4464 14.35281456329974
ORBCOMM FM28 [-]        
1 25482U 98053H   24063.30880919  .00001289  00000+0  49057-3 0  9996
2 25482  45.0055 274.0004 0004194  98.0322 262.1001 14.35737769330629
ORBCOMM FM30 [-]        
1 25980U 99065A   24063.61177768  .00001295  00000+0  50019-3 0  9995
2 25980  45.0313 152.9129 0007011 185.9279 174.1486 14.34937343266805
ORBCOMM FM31 [-]        
1 25981U 99065B   24063.36874524  .00001280  00000+0  49490-3 0  9997
2 25981  45.0227 147.8028 0004726 211.7012 148.3551 14.34949836266327
ORBCOMM FM32 [+]        
1 25982U 99065C   24063.37095964  .00001257  00000+0  49679-3 0  9995
2 25982  45.0152 161.1012 0007091 205.5385 154.5112 14.33915748266965
