<?xml version="1.0" encoding="UTF-8"?>
<ndm xmlns:xsi="http://www.w3.org/2001/XMLSchema-instance" xsi:noNamespaceSchemaLocation="https://sanaregistry.org/r/ndmxml_unqualified/ndmxml-2.0.0-master-2.0.xsd">
<omm id="CCSDS_OMM_VERS" version="2.0">
<header><CREATION_DATE/><ORIGINATOR/></header><body><segment><metadata><OBJECT_NAME>ORBCOMM FM24 [-]</OBJECT_NAME><OBJECT_ID>1998-053D</OBJECT_ID><CENTER_NAME>EARTH</CENTER_NAME><REF_FRAME>TEME</REF_FRAME><TIME_SYSTEM>UTC</TIME_SYSTEM><MEAN_ELEMENT_THEORY>SGP4</MEAN_ELEMENT_THEORY></metadata><data><meanElements><EPOCH>2024-03-03T01:40:48.184896</EPOCH><MEAN_MOTION>14.35320308</MEAN_MOTION><ECCENTRICITY>.0002104</ECCENTRICITY><INCLINATION>45.0105</INCLINATION><RA_OF_ASC_NODE>337.9240</RA_OF_ASC_NODE><ARG_OF_PERICENTER>4.4680</ARG_OF_PERICENTER><MEAN_ANOMALY>355.6186</MEAN_ANOMALY></meanElements><tleParameters><EPHEMERIS_TYPE>0</EPHEMERIS_TYPE><CLASSIFICATION_TYPE>U</CLASSIFICATION_TYPE><NORAD_CAT_ID>25478</NORAD_CAT_ID><ELEMENT_SET_NO>999</ELEMENT_SET_NO><REV_AT_EPOCH>32969</REV_AT_EPOCH><BSTAR>.52512E-3</BSTAR><MEAN_MOTION_DOT>.1378E-4</MEAN_MOTION_DOT><MEAN_MOTION_DDOT>0</MEAN_MOTION_DDOT></tleParameters></data></segment></body></omm>
<omm id="CCSDS_OMM_VERS" version="2.0">
<header><CREATION_DATE/><ORIGINATOR/></header><body><segment><metadata><OBJECT_NAME>ORBCOMM FM25 [-]</OBJECT_NAME><OBJECT_ID>1998-053E</OBJECT_ID><CENTER_NAME>EARTH</CENTER_NAME><REF_FRAME>TEME</REF_FRAME><TIME_SYSTEM>UTC</TIME_SYSTEM><MEAN_ELEMENT_THEORY>SGP4</MEAN_ELEMENT_THEORY></metadata><data><meanElements><EPOCH>2024-03-03T10:52:23.228832</EPOCH><MEAN_MOTION>14.35306109</MEAN_MOTION><ECCENTRICITY>.0004224</ECCENTRICITY><INCLINATION>45.0096</INCLINATION><RA_OF_ASC_NODE>334.3559</RA_OF_ASC_NODE><ARG_OF_PERICENTER>35.6576</ARG_OF_PERICENTER><MEAN_ANOMALY>324.4553</MEAN_ANOMALY></meanElements><tleParameters><EPHEMERIS_TYPE>0</EPHEMERIS_TYPE><CLASSIFICATION_TYPE>U</CLASSIFICATION_TYPE><NORAD_CAT_ID>25479</NORAD_CAT_ID><ELEMENT_SET_NO>999</ELEMENT_SET_NO><REV_AT_EPOCH>33004</REV_AT_EPOCH><BSTAR>.57855E-3</BSTAR><MEAN_MOTION_DOT>.1532E-4</MEAN_MOTION_DOT><MEAN_MOTION_DDOT>0</MEAN_MOTION_DDOT></tleParameters></data></segment></body></omm>
<omm id="CCSDS_OMM_VERS" version="2.0">
<header><CREATION_DATE/><ORIGINATOR/></header><body><segment><metadata><OBJECT_NAME>ORBCOMM FM26 [-]</OBJECT_NAME><OBJECT_ID>1998-053F</OBJECT_ID><CENTER_NAME>EARTH</CENTER_NAME><REF_FRAME>TEME</REF_FRAME><TIME_SYSTEM>UTC</TIME_SYSTEM><MEAN_ELEMENT_THEORY>SGP4</MEAN_ELEMENT_THEORY></metadata><data><meanElements><EPOCH>2024-03-03T10:25:29.485920</EPOCH><MEAN_MOTION>14.34795748</MEAN_MOTION><ECCENTRICITY>.0005967</ECCENTRICITY><INCLINATION>45.0088</INCLINATION><RA_OF_ASC_NODE>328.2884</RA_OF_ASC_NODE><ARG_OF_PERICENTER>61.8082</ARG_OF_PERICENTER><MEAN_ANOMALY>298.3367</MEAN_ANOMALY></meanElements><tleParameters><EPHEMERIS_TYPE>0</EPHEMERIS_TYPE><CLASSIFICATION_TYPE>U</CLASSIFICATION_TYPE><NORAD_CAT_ID>25480</NORAD_CAT_ID><ELEMENT_SET_NO>999</ELEMENT_SET_NO><REV_AT_EPOCH>32998</REV_AT_EPOCH><BSTAR>.50196E-3</BSTAR><MEAN_MOTION_DOT>.1296E-4</MEAN_MOTION_DOT><MEAN_MOTION_DDOT>0</MEAN_MOTION_DDOT></tleParameters></data></segment></body></omm>
<omm id="CCSDS_OMM_VERS" version="2.0">
<header><CREATION_DATE/><ORIGINATOR/></header><body><segment><metadata><OBJECT_NAME>ORBCOMM FM27 [+]</OBJECT_NAME><OBJECT_ID>1998-053G</OBJECT_ID><CENTER_NAME>EARTH</CENTER_NAME><REF_FRAME>TEME</REF_FRAME><TIME_SYSTEM>UTC</TIME_SYSTEM><MEAN_ELEMENT_THEORY>SGP4</MEAN_ELEMENT_THEORY></metadata><data><meanElements><EPOCH>2024-03-03T10:33:57.126528</EPOCH><MEAN_MOTION>14.35281456</MEAN_MOTION><ECCENTRICITY>.0000838</ECCENTRICITY><INCLINATION>45.0077</INCLINATION><RA_OF_ASC_NODE>334.6802</RA_OF_ASC_NODE><ARG_OF_PERICENTER>331.6338</ARG_OF_PERICENTER><MEAN_ANOMALY>28.4464</MEAN_ANOMALY></meanElements><tleParameters><EPHEMERIS_TYPE>0</EPHEMERIS_TYPE><CLASSIFICATION_TYPE>U</CLASSIFICATION_TYPE><NORAD_CAT_ID>25481</NORAD_CAT_ID><ELEMENT_SET_NO>999</ELEMENT_SET_NO><REV_AT_EPOCH>32997</REV_AT_EPOCH><BSTAR>.56841E-3</BSTAR><MEAN_MOTION_DOT>.1502E-4</MEAN_MOTION_DOT><MEAN_MOTION_DDOT>0</MEAN_MOTION_DDOT></tleParameters></data></segment></body></omm>
<omm id="CCSDS_OMM_VERS" version="2.0">
<header><CREATION_DATE/><ORIGINATOR/></header><body><segment><metadata><OBJECT_NAME>ORBCOMM FM28 [-]</OBJECT_NAME><OBJECT_ID>1998-053H</OBJECT_ID><CENTER_NAME>EARTH</CENTER_NAME><REF_FRAME>TEME</REF_FRAME><TIME_SYSTEM>UTC</TIME_SYSTEM><MEAN_ELEMENT_THEORY>SGP4</MEAN_ELEMENT_THEORY></metadata><data><meanElements><EPOCH>2024-03-03T07:24:41.114016</EPOCH><MEAN_MOTION>14.35737769</MEAN_MOTION><ECCENTRICITY>.0004194</ECCENTRICITY><INCLINATION>45.0055</INCLINATION><RA_OF_ASC_NODE>274.0004</RA_OF_ASC_NODE><ARG_OF_PERICENTER>98.0322</ARG_OF_PERICENTER><MEAN_ANOMALY>262.1001</MEAN_ANOMALY></meanElements><tleParameters><EPHEMERIS_TYPE>0</EPHEMERIS_TYPE><CLASSIFICATION_TYPE>U</CLASSIFICATION_TYPE><NORAD_CAT_ID>25482</NORAD_CAT_ID><ELEMENT_SET_NO>999</ELEMENT_SET_NO><REV_AT_EPOCH>33062</REV_AT_EPOCH><BSTAR>.49057E-3</BSTAR><MEAN_MOTION_DOT>.1289E-4</MEAN_MOTION_DOT><MEAN_MOTION_DDOT>0</MEAN_MOTION_DDOT></tleParameters></data></segment></body></omm>
<omm id="CCSDS_OMM_VERS" version="2.0">
<header><CREATION_DATE/><ORIGINATOR/></header><body><segment><metadata><OBJECT_NAME>ORBCOMM FM30 [-]</OBJECT_NAME><OBJECT_ID>1999-065A</OBJECT_ID><CENTER_NAME>EARTH</CENTER_NAME><REF_FRAME>TEME</REF_FRAME><TIME_SYSTEM>UTC</TIME_SYSTEM><MEAN_ELEMENT_THEORY>SGP4</MEAN_ELEMENT_THEORY></metadata><data><meanElements><EPOCH>2024-03-03T14:40:57.591552</EPOCH><MEAN_MOTION>14.34937343</MEAN_MOTION><ECCENTRICITY>.0007011</ECCENTRICITY><INCLINATION>45.0313</INCLINATION><RA_OF_ASC_NODE>152.9129</RA_OF_ASC_NODE><ARG_OF_PERICENTER>185.9279</ARG_OF_PERICENTER><MEAN_ANOMALY>174.1486</MEAN_ANOMALY></meanElements><tleParameters><EPHEMERIS_TYPE>0</EPHEMERIS_TYPE><CLASSIFICATION_TYPE>U</CLASSIFICATION_TYPE><NORAD_CAT_ID>25980</NORAD_CAT_ID><ELEMENT_SET_NO>999</ELEMENT_SET_NO><REV_AT_EPOCH>26680</REV_AT_EPOCH><BSTAR>.50019E-3</BSTAR><MEAN_MOTION_DOT>.1295E-4</MEAN_MOTION_DOT><MEAN_MOTION_DDOT>0</MEAN_MOTION_DDOT></tleParameters></data></segment></body></omm>
<omm id="CCSDS_OMM_VERS" version="2.0">
<header><CREATION_DATE/><ORIGINATOR/></header><body><segment><metadata><OBJECT_NAME>ORBCOMM FM31 [-]</OBJECT_NAME><OBJECT_ID>1999-065B</OBJECT_ID><CENTER_NAME>EARTH</CENTER_NAME><REF_FRAME>TEME</REF_FRAME><TIME_SYSTEM>UTC</TIME_SYSTEM><MEAN_ELEMENT_THEORY>SGP4</MEAN_ELEMENT_THEORY></metadata><data><meanElements><EPOCH>2024-03-03T08:50:59.588736</EPOCH><MEAN_MOTION>14.34949836</MEAN_MOTION><ECCENTRICITY>.0004726</ECCENTRICITY><INCLINATION>45.0227</INCLINATION><RA_OF_ASC_NODE>147.8028</RA_OF_ASC_NODE><ARG_OF_PERICENTER>211.7012</ARG_OF_PERICENTER><MEAN_ANOMALY>148.3551</MEAN_ANOMALY></meanElements><tleParameters><EPHEMERIS_TYPE>0</EPHEMERIS_TYPE><CLASSIFICATION_TYPE>U</CLASSIFICATION_TYPE><NORAD_CAT_ID>25981</NORAD_CAT_ID><ELEMENT_SET_NO>999</ELEMENT_SET_NO><REV_AT_EPOCH>26632</REV_AT_EPOCH><BSTAR>.4949E-3</BSTAR><MEAN_MOTION_DOT>.128E-4</MEAN_MOTION_DOT><MEAN_MOTION_DDOT>0</MEAN_MOTION_DDOT></tleParameters></data></segment></body></omm>
<omm id="CCSDS_OMM_VERS" version="2.0">
<header><CREATION_DATE/><ORIGINATOR/></header><body><segment><metadata><OBJECT_NAME>ORBCOMM FM32 [+]</OBJECT_NAME><OBJECT_ID>1999-065C</OBJECT_ID><CENTER_NAME>EARTH</CENTER_NAME><REF_FRAME>TEME</REF_FRAME><TIME_SYSTEM>UTC</TIME_SYSTEM><MEAN_ELEMENT_THEORY>SGP4</MEAN_ELEMENT_THEORY></metadata><data><meanElements><EPOCH>2024-03-03T08:54:10.912896</EPOCH><MEAN_MOTION>14.33915748</MEAN_MOTION><ECCENTRICITY>.0007091</ECCENTRICITY><INCLINATION>45.0152</INCLINATION><RA_OF_ASC_NODE>161.1012</RA_OF_ASC_NODE><ARG_OF_PERICENTER>205.5385</ARG_OF_PERICENTER><MEAN_ANOMALY>154.5112</MEAN_ANOMALY></meanElements><tleParameters><EPHEMERIS_TYPE>0</EPHEMERIS_TYPE><CLASSIFICATION_TYPE>U</CLASSIFICATION_TYPE><NORAD_CAT_ID>25982</NORAD_CAT_ID><ELEMENT_SET_NO>999</ELEMENT_SET_NO><REV_AT_EPOCH>26696</REV_AT_EPOCH><BSTAR>.49679E-3</BSTAR><MEAN_MOTION_DOT>.1257E-4</MEAN_MOTION_DOT><MEAN_MOTION_DDOT>0</MEAN_MOTION_DDOT></tleParameters></data></segment></body></omm>

</ndm>
